{
  "links": {
    "self": "https://api.nasa.gov/neo/rest/v1/neo/2068950?api_key=DEMO_KEY"
  },
  "neo_reference_id": "2068950",
  "name": "68950 (2002 QF15)",
  "nasa_jpl_url": "http://ssd.jpl.nasa.gov/sbdb.cgi?sstr=2068950",
  "absolute_magnitude_h": 16.4,
  "estimated_diameter": {
    "kilometers": {
      "estimated_diameter_min": 1.3949382293,
      "estimated_diameter_max": 3.1191767052
    },
    "meters": {
      "estimated_diameter_min": 1394.9382293439,
      "estimated_diameter_max": 3119.1767052261
    },
    "miles": {
      "estimated_diameter_min": 0.8667741625,
      "estimated_diameter_max": 1.9381659485
    },
    "feet": {
      "estimated_diameter_min": 4576.5691403606,
      "estimated_diameter_max": 10233.5197015741
    }
  },
  "is_potentially_hazardous_asteroid": true,
  "close_approach_data": [
    {
      "close_approach_date": "2016-11-19",
      "epoch_date_close_approach": 1479542400000,
      "relative_velocity": {
        "kilometers_per_second": "15.2812529077",
        "kilometers_per_hour": "55012.5104677844",
        "miles_per_hour": "34182.6346292742"
      },
      "miss_distance": {
        "astronomical": "0.1609690439",
        "lunar": "62.6169586182",
        "kilometers": "24080628",
        "miles": "14963008"
      },
      "orbiting_body": "Earth"
    }
  ],
  "orbital_data": {
    "orbit_id": "242",
    "orbit_determination_date": "2016-11-16 05:46:39",
    "orbit_uncertainty": "0",
    "minimum_orbit_intersection": ".00580106",
    "jupiter_tisserand_invariant": "5.690",
    "epoch_osculation": "2457600.5",
    "eccentricity": ".3442443695693617",
    "semi_major_axis": "1.056742153617099",
    "inclination": "25.15399159688671",
    "ascending_node_longitude": "236.2470281457961",
    "orbital_period": "396.7820113867592",
    "perihelion_distance": ".6929646171478112",
    "perihelion_argument": "255.5372381468924",
    "aphelion_distance": "1.420519690086387",
    "perihelion_time": "2457761.921806248545",
    "mean_anomaly": "213.5421249406585",
    "mean_motion": ".9072991962054795",
    "equinox": "J2000"
  }
}
